{
  "type": "FeatureCollection",
  "features": [
    {
      "type": "Feature",
      "properties": {
        "norad_id": 33412,
        "name": "COSMO-SKYMED 3",
        "group": "resource",
        "lat": 51.39989376888492,
        "lon": -161.1162703183706,
        "alt_km": 543.6973000337603,
        "timestamp": "2025-12-24T05:51:19.262335+00:00",
        "meta_object_name": "COSMO-SKYMED 3",
        "meta_object_id": "2008-054A",
        "meta_epoch": "2025-12-23T21:38:54.819168",
        "meta_mean_motion": 15.05452552,
        "meta_eccentricity": 0.00171211,
        "meta_inclination": 97.8456,
        "meta_ra_of_asc_node": 208.4827,
        "meta_arg_of_pericenter": 135.2665,
        "meta_mean_anomaly": 224.9945,
        "meta_ephemeris_type": 0,
        "meta_classification_type": "U",
        "meta_norad_cat_id": 33412,
        "meta_element_set_no": 999,
        "meta_rev_at_epoch": 93055,
        "meta_bstar": 0.00043820205,
        "meta_mean_motion_dot": 6.251e-05,
        "meta_mean_motion_ddot": 0,
        "tle_line1": "1 33412U 08054A   25357.90202337  .00006251  00000+0  43820-3 0  9991",
        "tle_line2": "2 33412  97.8456 208.4827 0017121 135.2665 224.9945 15.05452552930556"
      },
      "geometry": {
        "type": "Point",
        "coordinates": [
          -161.1162703183706,
          51.39989376888492
        ]
      }
    },
    {
      "type": "Feature",
      "properties": {
        "norad_id": 33446,
        "name": "YAOGAN-4",
        "group": "resource",
        "lat": 5.386073387046615,
        "lon": 108.98310688705061,
        "alt_km": 625.9225860693805,
        "timestamp": "2025-12-24T05:51:19.262345+00:00",
        "meta_object_name": "YAOGAN-4",
        "meta_object_id": "2008-061A",
        "meta_epoch": "2025-12-23T12:52:24.131424",
        "meta_mean_motion": 14.82712321,
        "meta_eccentricity": 0.00130241,
        "meta_inclination": 97.9197,
        "meta_ra_of_asc_node": 287.5304,
        "meta_arg_of_pericenter": 285.0861,
        "meta_mean_anomaly": 74.8911,
        "meta_ephemeris_type": 0,
        "meta_classification_type": "U",
        "meta_norad_cat_id": 33446,
        "meta_element_set_no": 999,
        "meta_rev_at_epoch": 91963,
        "meta_bstar": 0.00016555221,
        "meta_mean_motion_dot": 1.284e-05,
        "meta_mean_motion_ddot": 0,
        "tle_line1": "1 33446U 08061A   25357.53639041  .00001284  00000+0  16555-3 0  9997",
        "tle_line2": "2 33446  97.9197 287.5304 0013024 285.0861  74.8911 14.82712321919632"
      },
      "geometry": {
        "type": "Point",
        "coordinates": [
          108.98310688705061,
          5.386073387046615
        ]
      }
    },
    {
      "type": "Feature",
      "properties": {
        "norad_id": 33492,
        "name": "GOSAT (IBUKI)",
        "group": "resource",
        "lat": -39.670407297072074,
        "lon": 113.45101119595184,
        "alt_km": 675.9860892279785,
        "timestamp": "2025-12-24T05:51:19.262355+00:00",
        "meta_object_name": "GOSAT (IBUKI)",
        "meta_object_id": "2009-002A",
        "meta_epoch": "2025-12-23T21:51:22.128192",
        "meta_mean_motion": 14.67545823,
        "meta_eccentricity": 0.00010079,
        "meta_inclination": 98.0771,
        "meta_ra_of_asc_node": 106.3588,
        "meta_arg_of_pericenter": 104.2914,
        "meta_mean_anomaly": 255.8402,
        "meta_ephemeris_type": 0,
        "meta_classification_type": "U",
        "meta_norad_cat_id": 33492,
        "meta_element_set_no": 999,
        "meta_rev_at_epoch": 90575,
        "meta_bstar": 0.00015385044,
        "meta_mean_motion_dot": 8.25e-06,
        "meta_mean_motion_ddot": 0,
        "tle_line1": "1 33492U 09002A   25357.91067278  .00000825  00000+0  15385-3 0  9993",
        "tle_line2": "2 33492  98.0771 106.3588 0001007 104.2914 255.8402 14.67545823905752"
      },
      "geometry": {
        "type": "Point",
        "coordinates": [
          113.45101119595184,
          -39.670407297072074
        ]
      }
    },
    {
      "type": "Feature",
      "properties": {
        "norad_id": 35681,
        "name": "DEIMOS-1",
        "group": "resource",
        "lat": -15.792425359619601,
        "lon": 160.50941746595507,
        "alt_km": 649.6586882272823,
        "timestamp": "2025-12-24T05:51:19.262366+00:00",
        "meta_object_name": "DEIMOS-1",
        "meta_object_id": "2009-041A",
        "meta_epoch": "2025-12-23T23:24:53.517888",
        "meta_mean_motion": 14.7497006,
        "meta_eccentricity": 0.00025115,
        "meta_inclination": 97.7154,
        "meta_ra_of_asc_node": 158.0562,
        "meta_arg_of_pericenter": 61.6046,
        "meta_mean_anomaly": 298.5417,
        "meta_ephemeris_type": 0,
        "meta_classification_type": "U",
        "meta_norad_cat_id": 35681,
        "meta_element_set_no": 999,
        "meta_rev_at_epoch": 88105,
        "meta_bstar": 0.00015484213,
        "meta_mean_motion_dot": 9.93e-06,
        "meta_mean_motion_ddot": 0,
        "tle_line1": "1 35681U 09041A   25357.97561942  .00000993  00000+0  15484-3 0  9997",
        "tle_line2": "2 35681  97.7154 158.0562 0002511  61.6046 298.5417 14.74970060881053"
      },
      "geometry": {
        "type": "Point",
        "coordinates": [
          160.50941746595507,
          -15.792425359619601
        ]
      }
    },
    {
      "type": "Feature",
      "properties": {
        "norad_id": 35682,
        "name": "DUBAISAT-1",
        "group": "resource",
        "lat": -80.6862936581237,
        "lon": -110.03991089935623,
        "alt_km": 647.2156808446962,
        "timestamp": "2025-12-24T05:51:19.262377+00:00",
        "meta_object_name": "DUBAISAT-1",
        "meta_object_id": "2009-041B",
        "meta_epoch": "2025-12-23T20:30:47.661120",
        "meta_mean_motion": 14.74633022,
        "meta_eccentricity": 0.00092691,
        "meta_inclination": 97.9797,
        "meta_ra_of_asc_node": 128.3713,
        "meta_arg_of_pericenter": 274.5196,
        "meta_mean_anomaly": 85.4953,
        "meta_ephemeris_type": 0,
        "meta_classification_type": "U",
        "meta_norad_cat_id": 35682,
        "meta_element_set_no": 999,
        "meta_rev_at_epoch": 87925,
        "meta_bstar": 0.00019286606,
        "meta_mean_motion_dot": 1.236e-05,
        "meta_mean_motion_ddot": 0,
        "tle_line1": "1 35682U 09041B   25357.85471830  .00001236  00000+0  19287-3 0  9997",
        "tle_line2": "2 35682  97.9797 128.3713 0009269 274.5196  85.4953 14.74633022879256"
      },
      "geometry": {
        "type": "Point",
        "coordinates": [
          -110.03991089935623,
          -80.6862936581237
        ]
      }
    },
    {
      "type": "Feature",
      "properties": {
        "norad_id": 35931,
        "name": "OCEANSAT-2",
        "group": "resource",
        "lat": -40.69247227979693,
        "lon": 170.53538986431522,
        "alt_km": 911.9740812434948,
        "timestamp": "2025-12-24T05:51:19.262388+00:00",
        "meta_object_name": "OCEANSAT-2",
        "meta_object_id": "2009-051A",
        "meta_epoch": "2025-12-23T23:39:17.385696",
        "meta_mean_motion": 13.99622883,
        "meta_eccentricity": 0.00159236,
        "meta_inclination": 98.2218,
        "meta_ra_of_asc_node": 357.4451,
        "meta_arg_of_pericenter": 15.4983,
        "meta_mean_anomaly": 344.6668,
        "meta_ephemeris_type": 0,
        "meta_classification_type": "U",
        "meta_norad_cat_id": 35931,
        "meta_element_set_no": 999,
        "meta_rev_at_epoch": 85482,
        "meta_bstar": -1.0622597e-05,
        "meta_mean_motion_dot": -5.3e-07,
        "meta_mean_motion_ddot": 0,
        "tle_line1": "1 35931U 09051A   25357.98561789 -.00000053  00000+0 -10623-4 0  9996",
        "tle_line2": "2 35931  98.2218 357.4451 0015923  15.4983 344.6668 13.99622883854827"
      },
      "geometry": {
        "type": "Point",
        "coordinates": [
          170.53538986431522,
          -40.69247227979693
        ]
      }
    },
    {
      "type": "Feature",
      "properties": {
        "norad_id": 35946,
        "name": "WORLDVIEW-2 (WV-2)",
        "group": "resource",
        "lat": 60.12641898003473,
        "lon": -95.78058555035113,
        "alt_km": 759.3541562978407,
        "timestamp": "2025-12-24T05:51:19.262399+00:00",
        "meta_object_name": "WORLDVIEW-2 (WV-2)",
        "meta_object_id": "2009-055A",
        "meta_epoch": "2025-12-23T22:37:28.384032",
        "meta_mean_motion": 14.37728805,
        "meta_eccentricity": 0.00047694,
        "meta_inclination": 98.4773,
        "meta_ra_of_asc_node": 68.8734,
        "meta_arg_of_pericenter": 43.1968,
        "meta_mean_anomaly": 316.9592,
        "meta_ephemeris_type": 0,
        "meta_classification_type": "U",
        "meta_norad_cat_id": 35946,
        "meta_element_set_no": 999,
        "meta_rev_at_epoch": 85046,
        "meta_bstar": 7.1129986e-05,
        "meta_mean_motion_dot": 1.7e-06,
        "meta_mean_motion_ddot": 0,
        "tle_line1": "1 35946U 09055A   25357.94268963  .00000170  00000+0  71130-4 0  9998",
        "tle_line2": "2 35946  98.4773  68.8734 0004769  43.1968 316.9592 14.37728805850463"
      },
      "geometry": {
        "type": "Point",
        "coordinates": [
          -95.78058555035113,
          60.12641898003473
        ]
      }
    }
  ]
}